NORAD_CAT_ID,OBJECT_NAME,OBJECT_TYPE,EPOCH,MEAN_MOTION,ECCENTRICITY,INCLINATION,RA_OF_ASC_NODE,ARG_OF_PERICENTER,MEAN_ANOMALY,BSTAR,MEAN_MOTION_DOT,MEAN_MOTION_DDOT,TLE_LINE0,TLE_LINE1,TLE_LINE2,SEMIMAJOR_AXIS,PERIOD,APOGEE,PERIGEE,DECAYED
53914.0,STARLINK-5040,PAYLOAD,2022-12-07 06:00:00,15.48788177,0.000151,53.2169,251.5037,86.7879,84.8082,-0.013844,-0.00701422,0.0,0 STARLINK-5040,1 53914U 22119AE  22341.25001157 -.00701422  00000-0 -13844-1 0  9999,2 53914  53.2169 251.5037 0001510  86.7879  84.8082 15.48788177 11957,6798.406999999997,92.976,421.299,419.245,0.0
53914.0,STARLINK-5040,PAYLOAD,2022-12-07 14:00:01,15.47701684,9.75e-05,53.2178,249.9118,76.3352,154.8784,-0.0065505,-0.0033058,0.0,0 STARLINK-5040,1 53914U 22119AE  22341.58334491 -.00330580  00000-0 -65505-2 0  9990,2 53914  53.2178 249.9118 0000975  76.3352 154.8784 15.47701684 12004,6801.5880000000025,93.041,424.116,422.79,0.0
53914.0,STARLINK-5040,PAYLOAD,2022-12-07 22:00:00,15.47192805,0.0001104,53.217,248.3241,99.4185,190.1195,-0.015667,-0.00746781,0.0,0 STARLINK-5040,1 53914U 22119AE  22341.91667824 -.00746781  00000-0 -15667-1 0  9993,2 53914  53.2170 248.3241 0001104  99.4185 190.1195 15.47192805 12054,6803.08,93.072,425.696,424.193,0.0
53914.0,STARLINK-5040,PAYLOAD,2022-12-08 00:00:00,15.47229994,0.0001052,53.2172,247.928,85.3371,308.5461,-0.023006,-0.01077602,0.0,0 STARLINK-5040,1 53914U 22119AE  22342.00001157 -.01077602  00000-0 -23006-1 0  9991,2 53914  53.2172 247.9280 0001052  85.3371 308.5461 15.47229994  1304,6802.971,93.07,425.551,424.12,0.0
53914.0,STARLINK-5040,PAYLOAD,2022-12-08 06:00:00,15.46653947,0.0001031,53.2173,246.7386,91.1667,255.7436,-0.024629,-0.01142171,0.0,0 STARLINK-5040,1 53914U 22119AE  22342.25001157 -.01142171  00000-0 -24629-1 0  9994,2 53914  53.2173 246.7386 0001031  91.1667 255.7436 15.46653947 12102,6804.66,93.104,427.226,425.823,0.0
53914.0,STARLINK-5040,PAYLOAD,2022-12-08 14:00:01,15.45836817,0.0001069,53.2173,245.1523,73.7501,329.6969,-0.025251,-0.01138631,0.0,0 STARLINK-5040,1 53914U 22119AE  22342.58334491 -.01138631  00000-0 -25251-1 0  9998,2 53914  53.2173 245.1523 0001069  73.7501 329.6969 15.45836817  1302,6807.057,93.153,429.65,428.195,0.0
53914.0,STARLINK-5040,PAYLOAD,2022-12-08 22:00:01,15.45026273,0.0001243,53.2176,243.5711,69.1315,29.9334,-0.026075,-0.01143024,0.0,0 STARLINK-5040,1 53914U 22119AE  22342.91668981 -.01143024  00000-0 -26075-1 0  9996,2 53914  53.2176 243.5711 0001243  69.1315  29.9334 15.45026273  1305,6809.438,93.202,432.149,430.456,0.0
53914.0,STARLINK-5040,PAYLOAD,2022-12-09 14:00:01,15.43397913,0.0001281,53.2173,240.4108,89.2534,117.9258,-0.027512,-0.01140916,0.0,0 STARLINK-5040,1 53914U 22119AE  22343.58334491 -.01140916  00000-0 -27512-1 0  9990,2 53914  53.2173 240.4108 0001281  89.2534 117.9258 15.43397913  1309,6814.227,93.301,436.964,435.219,0.0
53914.0,STARLINK-5040,PAYLOAD,2022-12-09 22:00:00,15.42602021,0.0001209,53.2166,238.8361,105.6411,154.1502,-0.028911,-0.01164743,0.0,0 STARLINK-5040,1 53914U 22119AE  22343.91667824 -.01164743  00000-0 -28911-1 0  9994,2 53914  53.2166 238.8361 0001209 105.6411 154.1502 15.42602021 12361,6816.57,93.349,439.259,437.611,0.0
53914.0,STARLINK-5040,PAYLOAD,2022-12-10 14:00:01,15.40954765,0.0001103,53.2172,235.6868,108.8983,253.2145,-0.029784,-0.01137734,0.0,0 STARLINK-5040,1 53914U 22119AE  22344.58334491 -.01137734  00000-0 -29784-1 0  9998,2 53914  53.2172 235.6868 0001103 108.8983 253.2145 15.40954765  1306,6821.427,93.449,444.045,442.54,0.0
53914.0,STARLINK-5040,PAYLOAD,2022-12-11 00:00:00,15.39940129,0.0001426,53.2173,233.7256,66.2306,87.8379,-0.030914,-0.01141396,0.0,0 STARLINK-5040,1 53914U 22119AE  22345.00001157 -.01141396  00000-0 -30914-1 0  9992,2 53914  53.2173 233.7256 0001426  66.2306  87.8379 15.39940129  1308,6824.4230000000025,93.51,447.261,445.315,0.0
53914.0,STARLINK-5040,PAYLOAD,2022-12-11 06:00:00,15.39329379,0.0001193,53.2172,232.549,75.7514,24.7586,-0.031501,-0.01139851,0.0,0 STARLINK-5040,1 53914U 22119AE  22345.25001157 -.01139851  00000-0 -31501-1 0  9995,2 53914  53.2172 232.5490 0001193  75.7514  24.7586 15.39329379 12570,6826.228,93.547,448.908,447.279,0.0
53914.0,STARLINK-5040,PAYLOAD,2022-12-11 14:00:01,15.38516354,0.0001296,53.2173,230.9803,102.3707,45.8732,-0.032428,-0.01142164,0.0,0 STARLINK-5040,1 53914U 22119AE  22345.58334491 -.01142164  00000-0 -32428-1 0  9991,2 53914  53.2173 230.9803 0001296 102.3707  45.8732 15.38516354  1302,6828.6330000000025,93.597,451.383,449.61300000000006,0.0
53914.0,STARLINK-5040,PAYLOAD,2022-12-11 22:00:01,15.376999800000002,0.0001357,53.2174,229.4169,84.2083,110.8547,-0.033158,-0.01137475,0.0,0 STARLINK-5040,1 53914U 22119AE  22345.91668981 -.01137475  00000-0 -33158-1 0  9992,2 53914  53.2174 229.4169 0001357  84.2083 110.8547 15.37699980 12679,6831.05,93.646,453.842,451.98800000000006,0.0
53914.0,STARLINK-5040,PAYLOAD,2022-12-12 14:00:01,15.36072617,0.0001219,53.2173,226.2911,92.5581,193.0181,-0.034961,-0.01137447,0.0,0 STARLINK-5040,1 53914U 22119AE  22346.58334491 -.01137447  00000-0 -34961-1 0  9994,2 53914  53.2173 226.2911 0001219  92.5581 193.0181 15.36072617 12779,6835.873000000001,93.746,458.572,456.905,0.0
53914.0,STARLINK-5040,PAYLOAD,2022-12-12 22:00:00,15.3525986,0.0001198,53.2174,224.7337,73.5903,255.8057,-0.035923,-0.01138392,0.0,0 STARLINK-5040,1 53914U 22119AE  22346.91667824 -.01138392  00000-0 -35923-1 0  9999,2 53914  53.2174 224.7337 0001198  73.5903 255.8057 15.35259860  1300,6838.286,93.795,460.97,459.332,0.0
53914.0,STARLINK-5040,PAYLOAD,2022-12-13 06:00:00,15.34447591,0.0001073,53.2173,223.1762,92.4877,279.7515,-0.036946,-0.01140447,0.0,0 STARLINK-5040,1 53914U 22119AE  22347.25001157 -.01140447  00000-0 -36946-1 0  9998,2 53914  53.2173 223.1762 0001073  92.4877 279.7515 15.34447591 12884,6840.699000000001,93.845,463.298,461.83,0.0
53914.0,STARLINK-5040,PAYLOAD,2022-12-13 14:00:01,15.33631012,0.0001132,53.2174,221.6193,94.6673,319.4397,-0.037778,-0.01136496,0.0,0 STARLINK-5040,1 53914U 22119AE  22347.58334491 -.01136496  00000-0 -37778-1 0  9997,2 53914  53.2174 221.6193 0001132  94.6673 319.4397 15.33631012  1307,6843.127,93.895,465.766,464.217,0.0
53914.0,STARLINK-5040,PAYLOAD,2022-12-13 22:00:00,15.32819526,0.0001341999999999,53.2175,220.0679,64.4912,30.5017,-0.038879,-0.01139606,0.0,0 STARLINK-5040,1 53914U 22119AE  22347.91667824 -.01139606  00000-0 -38879-1 0  9992,2 53914  53.2175 220.0679 0001342  64.4912  30.5017 15.32819526  1301,6845.542,93.945,468.325,466.48800000000006,0.0
53914.0,STARLINK-5040,PAYLOAD,2022-12-14 06:00:00,15.32004762,0.0001369,53.2172,218.5158,66.2454,68.6582,-0.03981,-0.01137439,0.0,0 STARLINK-5040,1 53914U 22119AE  22348.25001157 -.01137439  00000-0 -39810-1 0  9999,2 53914  53.2172 218.5158 0001369  66.2454  68.6582 15.32004762 13032,6847.969,93.994,470.771,468.896,0.0
53914.0,STARLINK-5040,PAYLOAD,2022-12-14 14:00:01,15.31191565,0.00014,53.2169,216.9655,74.156,99.6801,-0.040906,-0.01139095,0.0,0 STARLINK-5040,1 53914U 22119AE  22348.58334491 -.01139095  00000-0 -40906-1 0  9993,2 53914  53.2169 216.9655 0001400  74.1560  99.6801 15.31191565  1306,6850.393,94.044,473.217,471.299,0.0
53914.0,STARLINK-5040,PAYLOAD,2022-12-14 22:00:00,15.30382996,0.0001399,53.2168,215.4194,93.3455,118.4412,-0.04221,-0.01145436,0.0,0 STARLINK-5040,1 53914U 22119AE  22348.91667824 -.01145436  00000-0 -42210-1 0  9995,2 53914  53.2168 215.4194 0001399  93.3455 118.4412 15.30382996  1307,6852.806,94.094,475.629,473.712,0.0
53914.0,STARLINK-5040,PAYLOAD,2022-12-15 06:00:00,15.29564726,0.0001327,53.2172,213.8729,98.2082,150.558,-0.043058,-0.01139598,0.0,0 STARLINK-5040,1 53914U 22119AE  22349.25001157 -.01139598  00000-0 -43058-1 0  9997,2 53914  53.2172 213.8729 0001327  98.2082 150.5580 15.29564726 13182,6855.25,94.144,478.024,476.205,0.0
53914.0,STARLINK-5040,PAYLOAD,2022-12-15 14:00:01,15.28748481,0.000126,53.2175,212.3277,85.311,199.4552,-0.043974,-0.0113519,0.0,0 STARLINK-5040,1 53914U 22119AE  22349.58334491 -.01135190  00000-0 -43974-1 0  9994,2 53914  53.2175 212.3277 0001260  85.3110 199.4552 15.28748481  1305,6857.689,94.195,480.419,478.69,0.0
53914.0,STARLINK-5040,PAYLOAD,2022-12-15 22:00:00,15.27935782,0.0001235,53.2174,210.7878,78.1972,241.5881,-0.04516,-0.0113681,0.0,0 STARLINK-5040,1 53914U 22119AE  22349.91667824 -.01136810  00000-0 -45160-1 0  9999,2 53914  53.2174 210.7878 0001235  78.1972 241.5881 15.27935782  1306,6860.121,94.245,482.833,481.139,0.0
53914.0,STARLINK-5040,PAYLOAD,2022-12-16 06:00:00,15.27123155,0.0001238,53.2173,209.2471,60.6885,293.14,-0.046386,-0.01138748,0.0,0 STARLINK-5040,1 53914U 22119AE  22350.25001157 -.01138748  00000-0 -46386-1 0  9992,2 53914  53.2173 209.2471 0001238  60.6885 293.1400 15.27123155 13349,6862.554,94.295,485.269,483.57,0.0
53914.0,STARLINK-5040,PAYLOAD,2022-12-16 14:00:01,15.26314823,0.0001228,53.2166,207.7085,79.939,306.9519,-0.047842,-0.01160616,0.0,0 STARLINK-5040,1 53914U 22119AE  22350.58334491 -.01160616  00000-0 -47842-1 0  9995,2 53914  53.2166 207.7085 0001228  79.9390 306.9519 15.26314823  1308,6864.977,94.345,487.685,485.999,0.0
53914.0,STARLINK-5040,PAYLOAD,2022-12-16 22:00:00,15.25496071,0.0001264999999999,53.2175,206.1737,71.6405,347.3394,-0.048751,-0.0115419,0.0,0 STARLINK-5040,1 53914U 22119AE  22350.91667824 -.01154190  00000-0 -48751-1 0  9991,2 53914  53.2175 206.1737 0001265  71.6405 347.3394 15.25496071  1307,6867.433000000001,94.396,490.167,488.43,0.0
53914.0,STARLINK-5040,PAYLOAD,2022-12-17 06:00:00,15.24680367,0.0001272,53.2173,204.6386,71.6083,18.4822,-0.049803,-0.01150706,0.0,0 STARLINK-5040,1 53914U 22119AE  22351.25001157 -.01150706  00000-0 -49803-1 0  9998,2 53914  53.2173 204.6386 0001272  71.6083  18.4822 15.24680367 13495,6869.882,94.446,492.621,490.874,0.0
